[
    {
        "OBJECT_NAME": "QZS-2 (MICHIBIKI-2)",
        "OBJECT_ID": "2017-028A",
        "EPOCH": "2025-11-23T11:55:28.748928",
        "MEAN_MOTION": 1.00288248,
        "ECCENTRICITY": 0.0760695,
        "INCLINATION": 39.7457,
        "RA_OF_ASC_NODE": 246.1646,
        "ARG_OF_PERICENTER": 269.2417,
        "MEAN_ANOMALY": 227.1417,
        "EPHEMERIS_TYPE": 0,
        "CLASSIFICATION_TYPE": "U",
        "NORAD_CAT_ID": 42738,
        "ELEMENT_SET_NO": 999,
        "REV_AT_EPOCH": 556,
        "BSTAR": 0,
        "MEAN_MOTION_DOT": -1.6e-06,
        "MEAN_MOTION_DDOT": 0
    },
    {
        "OBJECT_NAME": "QZS-3 (MICHIBIKI-3)",
        "OBJECT_ID": "2017-048A",
        "EPOCH": "2025-11-23T23:12:48.466368",
        "MEAN_MOTION": 1.00270216,
        "ECCENTRICITY": 9.51e-05,
        "INCLINATION": 0.076,
        "RA_OF_ASC_NODE": 128.2487,
        "ARG_OF_PERICENTER": 95.6221,
        "MEAN_ANOMALY": 314.5732,
        "EPHEMERIS_TYPE": 0,
        "CLASSIFICATION_TYPE": "U",
        "NORAD_CAT_ID": 42917,
        "ELEMENT_SET_NO": 999,
        "REV_AT_EPOCH": 3020,
        "BSTAR": 0,
        "MEAN_MOTION_DOT": -3.27e-06,
        "MEAN_MOTION_DDOT": 0
    },
    {
        "OBJECT_NAME": "QZS-4 (MICHIBIKI-4)",
        "OBJECT_ID": "2017-062A",
        "EPOCH": "2025-11-23T11:52:30.821952",
        "MEAN_MOTION": 1.00259074,
        "ECCENTRICITY": 0.0751891,
        "INCLINATION": 40.2375,
        "RA_OF_ASC_NODE": 346.1195,
        "ARG_OF_PERICENTER": 271.0446,
        "MEAN_ANOMALY": 121.4662,
        "EPHEMERIS_TYPE": 0,
        "CLASSIFICATION_TYPE": "U",
        "NORAD_CAT_ID": 42965,
        "ELEMENT_SET_NO": 999,
        "REV_AT_EPOCH": 2974,
        "BSTAR": 0,
        "MEAN_MOTION_DOT": -3.1e-06,
        "MEAN_MOTION_DDOT": 0
    },
    {
        "OBJECT_NAME": "QZS-1R (MICHIBIKI-1R)",
        "OBJECT_ID": "2021-096A",
        "EPOCH": "2025-11-21T16:13:51.590784",
        "MEAN_MOTION": 1.00264912,
        "ECCENTRICITY": 0.07524577,
        "INCLINATION": 37.0334,
        "RA_OF_ASC_NODE": 82.6733,
        "ARG_OF_PERICENTER": 270.908,
        "MEAN_ANOMALY": 86.552,
        "EPHEMERIS_TYPE": 0,
        "CLASSIFICATION_TYPE": "U",
        "NORAD_CAT_ID": 49336,
        "ELEMENT_SET_NO": 999,
        "REV_AT_EPOCH": 1493,
        "BSTAR": 0,
        "MEAN_MOTION_DOT": -2.32e-06,
        "MEAN_MOTION_DDOT": 0
    },
    {
        "OBJECT_NAME": "QZS-6 (MICHIBIKI-6)",
        "OBJECT_ID": "2025-023A",
        "EPOCH": "2025-11-23T02:29:34.776672",
        "MEAN_MOTION": 1.00273895,
        "ECCENTRICITY": 0.00016736,
        "INCLINATION": 0.0307,
        "RA_OF_ASC_NODE": 293.1194,
        "ARG_OF_PERICENTER": 317.1712,
        "MEAN_ANOMALY": 299.9689,
        "EPHEMERIS_TYPE": 0,
        "CLASSIFICATION_TYPE": "U",
        "NORAD_CAT_ID": 62876,
        "ELEMENT_SET_NO": 999,
        "REV_AT_EPOCH": 289,
        "BSTAR": 0,
        "MEAN_MOTION_DOT": -2.13e-06,
        "MEAN_MOTION_DDOT": 0
    }
]