QZS-2 (MICHIBIKI-2)     
1 42738U 17028A   25327.49686052 -.00000160  00000+0  00000+0 0  9997
2 42738  39.7457 246.1646 0760695 269.2417 227.1417  1.00288248  5567
QZS-3 (MICHIBIKI-3)     
1 42917U 17048A   25327.96722762 -.00000327  00000+0  00000+0 0  9994
2 42917   0.0760 128.2487 0000951  95.6221 314.5732  1.00270216 30209
QZS-4 (MICHIBIKI-4)     
1 42965U 17062A   25327.49480118 -.00000310  00000+0  00000+0 0  9999
2 42965  40.2375 346.1195 0751891 271.0446 121.4662  1.00259074 29745
QZS-1R (MICHIBIKI-1R)   
1 49336U 21096A   25325.67629156 -.00000232  00000+0  00000+0 0  9998
2 49336  37.0334  82.6733 0752457 270.9080  86.5520  1.00264912 14930
QZS-6 (MICHIBIKI-6)     
1 62876U 25023A   25327.10387473 -.00000213  00000+0  00000+0 0  9998
2 62876   0.0307 293.1194 0001673 317.1712 299.9689  1.00273895  2895
